EYESAT A (AO-27)        
1 22825U 93061C   26186.18004384  .00000151  00000+0  74236-4 0  9991
2 22825  98.6873 253.5864 0009241  53.0213 307.1814 14.30947411709571
ITAMSAT (IO-26)         
1 22826U 93061D   26186.15408635  .00000155  00000+0  75456-4 0  9995
2 22826  98.6820 253.4798 0009522  37.5027 322.6818 14.31374787709882
RADIO ROSTO (RS15)      
1 23439U 94085A   26186.20855563 -.00000029  00000+0  37499-3 0  9990
2 23439  64.8175 274.0715 0156551   0.5463 359.5606 11.27583530297930
JAS-2 (FO-29)           
1 24278U 96046B   26185.83332930 -.00000022  00000+0  11395-4 0  9998
2 24278  98.5226  32.2868 0350728  50.7729 312.3996 13.53275006475552
FORTE                   
1 24920U 97047A   26185.67715804  .00000266  00000+0  13019-3 0  9994
2 24920  69.9545 334.5145 0024567 256.2124 103.6264 14.27952788501188
TECHSAT 1B (GO-32)      
1 25397U 98043D   26186.18706267  .00000087  00000+0  57629-4 0  9997
2 25397  99.0075 179.4002 0001871 130.7519 229.3822 14.24432045453890
ISS (ZARYA)             
1 25544U 98067A   26186.12116982  .00009813  00000+0  18661-3 0  9998
2 25544  51.6302 211.3234 0006740 257.5366 102.4869 15.48901138574530
IMAGE                   
1 26113U 00017A   26181.91168621 -.00000033  00000+0  00000+0 0  9998
2 26113  94.2398 315.5527 7422471 286.2504   9.4555  1.68666270161730
CLUSTER II-FM7 (SAMBA)  
1 26410U 00041A   26188.21797159  .00007566  00000+0  00000+0 0  9996
2 26410 149.8716  54.4790 9079263 271.8893 359.5006  0.44837774 20390
CLUSTER II-FM8 (TANGO)  
1 26464U 00045B   26184.19681525  .00012165  00000+0  00000+0 0  9992
2 26464 150.1065  54.7656 9078554 272.0035   2.3073  0.44420887 20387
ODIN                    
1 26702U 01007A   26186.02648908  .00458636  00000+0  19689-2 0  9991
2 26702  97.3753 228.2026 0005309 134.4495 225.7210 15.83903540392216
OMNI-M1                 
1 26857U 01026A   26183.00645506  .00000007  00000+0  00000+0 0  9998
2 26857  44.8270 241.8483 0013799  56.1769 304.0224  3.92402003206150
PCSAT (NO-44)           
1 26931U 01043C   26186.03969763  .00000158  00000+0  89765-4 0  9997
2 26931  67.0487 198.0968 0006005 265.8306  94.2109 14.31962418293005
PROBA-1                 
1 26958U 01049B   26186.25702942  .00003050  00000+0  19801-3 0  9997
2 26958  97.9595 195.4213 0056232  62.5747 298.1184 15.07577807346340
SAUDISAT 1C (SO-50)     
1 27607U 02058C   26185.68749616  .00001404  00000+0  18212-3 0  9991
2 27607  64.5520  74.8394 0074817 259.1898 100.0781 14.83086074267058
CORIOLIS                
1 27640U 03001A   26186.02481649  .00000134  00000+0  83337-4 0  9995
2 27640  98.7128 192.6373 0014439 157.0999 203.0824 14.19949918216753
CUTE-1 (CO-55)          
1 27844U 03031E   26186.02060450  .00000393  00000+0  18869-3 0  9991
2 27844  98.6737 194.3551 0010529 129.0136 231.1982 14.24347366194217
CUBESAT XI-IV (CO-57)   
1 27848U 03031J   26185.94773638  .00000336  00000+0  16664-3 0  9992
2 27848  98.6769 193.9817 0010102 146.4963 213.6856 14.23630898193908
MOZHAETS 4 (RS22)       
1 27939U 03042A   26186.35436638  .00000784  00000+0  12887-3 0  9997
2 27939  98.3472  11.2262 0010474 205.5121 274.3612 14.73499680218222
